{
    "week": 287,
    "satellites": [
        {
            "Name": "COSMOS 2433 (720)",
            "Line1": "1 32275U 07052A   24281.37175782 -.00000047  00000+0  00000+0 0  9990",
            "Line2": "2 32275  65.8897 336.6485 0005363 236.2636 123.7587  2.13104158131894",
            "SatelliteNumber": "32275",
            "Classification": "U",
            "LaunchYear": "07",
            "LaunchNumber": "052",
            "PieceOfLaunch": "A",
            "EpochYear": "24",
            "EpochDay": 281.37175782,
            "FirstDerivativeMeanMotion": -4.7e-07,
            "SecondDerivativeMeanMotion": "00000+0",
            "BSTAR": "00000+0",
            "SetNumber": "999",
            "Inclination": 65.8897,
            "RAAN": 336.6485,
            "Eccentricity": 0.0005363,
            "ArgumentOfPerigee": 236.2636,
            "MeanAnomaly": 123.7587,
            "MeanMotion": 2.13104158,
            "RevolutionNumber": "13189"
        },
        {
            "Name": "COSMOS 2432 (719)",
            "Line1": "1 32276U 07052B   24281.52263681 -.00000046  00000+0  00000+0 0  9993",
            "Line2": "2 32276  65.9047 336.7595 0009706 309.4375 112.2022  2.13103192131922",
            "SatelliteNumber": "32276",
            "Classification": "U",
            "LaunchYear": "07",
            "LaunchNumber": "052",
            "PieceOfLaunch": "B",
            "EpochYear": "24",
            "EpochDay": 281.52263681,
            "FirstDerivativeMeanMotion": -4.6e-07,
            "SecondDerivativeMeanMotion": "00000+0",
            "BSTAR": "00000+0",
            "SetNumber": "999",
            "Inclination": 65.9047,
            "RAAN": 336.7595,
            "Eccentricity": 0.0009706,
            "ArgumentOfPerigee": 309.4375,
            "MeanAnomaly": 112.2022,
            "MeanMotion": 2.13103192,
            "RevolutionNumber": "13192"
        },
        {
            "Name": "COSMOS 2434 (721)",
            "Line1": "1 32393U 07065A   24281.56968730  .00000033  00000+0  00000+0 0  9993",
            "Line2": "2 32393  64.3186 212.7686 0001810  61.5667 342.4729  2.13101321130619",
            "SatelliteNumber": "32393",
            "Classification": "U",
            "LaunchYear": "07",
            "LaunchNumber": "065",
            "PieceOfLaunch": "A",
            "EpochYear": "24",
            "EpochDay": 281.5696873,
            "FirstDerivativeMeanMotion": 3.3e-07,
            "SecondDerivativeMeanMotion": "00000+0",
            "BSTAR": "00000+0",
            "SetNumber": "999",
            "Inclination": 64.3186,
            "RAAN": 212.7686,
            "Eccentricity": 0.000181,
            "ArgumentOfPerigee": 61.5667,
            "MeanAnomaly": 342.4729,
            "MeanMotion": 2.13101321,
            "RevolutionNumber": "13061"
        },
        {
            "Name": "COSMOS 2436 (723)",
            "Line1": "1 32395U 07065C   24281.57257741  .00000033  00000+0  00000+0 0  9999",
            "Line2": "2 32395  64.3272 212.8342 0016702 359.1362 182.0581  2.13100068130566",
            "SatelliteNumber": "32395",
            "Classification": "U",
            "LaunchYear": "07",
            "LaunchNumber": "065",
            "PieceOfLaunch": "C",
            "EpochYear": "24",
            "EpochDay": 281.57257741,
            "FirstDerivativeMeanMotion": 3.3e-07,
            "SecondDerivativeMeanMotion": "00000+0",
            "BSTAR": "00000+0",
            "SetNumber": "999",
            "Inclination": 64.3272,
            "RAAN": 212.8342,
            "Eccentricity": 0.0016702,
            "ArgumentOfPerigee": 359.1362,
            "MeanAnomaly": 182.0581,
            "MeanMotion": 2.13100068,
            "RevolutionNumber": "13056"
        },
        {
            "Name": "COSMOS 2456 (730)",
            "Line1": "1 36111U 09070A   24280.77859740  .00000046  00000+0  00000+0 0  9999",
            "Line2": "2 36111  64.6663  92.1282 0001395 336.6102 334.7621  2.13103812115248",
            "SatelliteNumber": "36111",
            "Classification": "U",
            "LaunchYear": "09",
            "LaunchNumber": "070",
            "PieceOfLaunch": "A",
            "EpochYear": "24",
            "EpochDay": 280.7785974,
            "FirstDerivativeMeanMotion": 4.6e-07,
            "SecondDerivativeMeanMotion": "00000+0",
            "BSTAR": "00000+0",
            "SetNumber": "999",
            "Inclination": 64.6663,
            "RAAN": 92.1282,
            "Eccentricity": 0.0001395,
            "ArgumentOfPerigee": 336.6102,
            "MeanAnomaly": 334.7621,
            "MeanMotion": 2.13103812,
            "RevolutionNumber": "11524"
        },
        {
            "Name": "COSMOS 2457 (733)",
            "Line1": "1 36112U 09070B   24281.60725428  .00000052  00000+0  00000+0 0  9995",
            "Line2": "2 36112  64.6515  91.9559 0006251 143.5707 216.6212  2.13101239115279",
            "SatelliteNumber": "36112",
            "Classification": "U",
            "LaunchYear": "09",
            "LaunchNumber": "070",
            "PieceOfLaunch": "B",
            "EpochYear": "24",
            "EpochDay": 281.60725428,
            "FirstDerivativeMeanMotion": 5.2e-07,
            "SecondDerivativeMeanMotion": "00000+0",
            "BSTAR": "00000+0",
            "SetNumber": "999",
            "Inclination": 64.6515,
            "RAAN": 91.9559,
            "Eccentricity": 0.0006251,
            "ArgumentOfPerigee": 143.5707,
            "MeanAnomaly": 216.6212,
            "MeanMotion": 2.13101239,
            "RevolutionNumber": "11527"
        },
        {
            "Name": "COSMOS 2460 (732)",
            "Line1": "1 36402U 10007C   24280.27847510 -.00000048  00000+0  00000+0 0  9994",
            "Line2": "2 36402  65.7443 335.3312 0002386 233.5508 180.5651  2.13106332113632",
            "SatelliteNumber": "36402",
            "Classification": "U",
            "LaunchYear": "10",
            "LaunchNumber": "007",
            "PieceOfLaunch": "C",
            "EpochYear": "24",
            "EpochDay": 280.2784751,
            "FirstDerivativeMeanMotion": -4.8e-07,
            "SecondDerivativeMeanMotion": "00000+0",
            "BSTAR": "00000+0",
            "SetNumber": "999",
            "Inclination": 65.7443,
            "RAAN": 335.3312,
            "Eccentricity": 0.0002386,
            "ArgumentOfPerigee": 233.5508,
            "MeanAnomaly": 180.5651,
            "MeanMotion": 2.13106332,
            "RevolutionNumber": "11363"
        },
        {
            "Name": "COSMOS 2476 (744)",
            "Line1": "1 37867U 11064A   24281.56206980  .00000054  00000+0  00000+0 0  9993",
            "Line2": "2 37867  64.9378  93.7781 0021875 230.3948 233.9687  2.13101637100606",
            "SatelliteNumber": "37867",
            "Classification": "U",
            "LaunchYear": "11",
            "LaunchNumber": "064",
            "PieceOfLaunch": "A",
            "EpochYear": "24",
            "EpochDay": 281.5620698,
            "FirstDerivativeMeanMotion": 5.4e-07,
            "SecondDerivativeMeanMotion": "00000+0",
            "BSTAR": "00000+0",
            "SetNumber": "999",
            "Inclination": 64.9378,
            "RAAN": 93.7781,
            "Eccentricity": 0.0021875,
            "ArgumentOfPerigee": 230.3948,
            "MeanAnomaly": 233.9687,
            "MeanMotion": 2.13101637,
            "RevolutionNumber": "10060"
        },
        {
            "Name": "COSMOS 2477 (745)",
            "Line1": "1 37868U 11064B   24280.25454965  .00000046  00000+0  00000+0 0  9998",
            "Line2": "2 37868  64.9439  93.8960 0019007 230.5485 129.4057  2.13103127100568",
            "SatelliteNumber": "37868",
            "Classification": "U",
            "LaunchYear": "11",
            "LaunchNumber": "064",
            "PieceOfLaunch": "B",
            "EpochYear": "24",
            "EpochDay": 280.25454965,
            "FirstDerivativeMeanMotion": 4.6e-07,
            "SecondDerivativeMeanMotion": "00000+0",
            "BSTAR": "00000+0",
            "SetNumber": "999",
            "Inclination": 64.9439,
            "RAAN": 93.896,
            "Eccentricity": 0.0019007,
            "ArgumentOfPerigee": 230.5485,
            "MeanAnomaly": 129.4057,
            "MeanMotion": 2.13103127,
            "RevolutionNumber": "10056"
        },
        {
            "Name": "COSMOS 2475 (743)",
            "Line1": "1 37869U 11064C   24281.24910439  .00000052  00000+0  00000+0 0  9999",
            "Line2": "2 37869  64.9512  93.8780 0023343 247.7381 113.1237  2.13101861100602",
            "SatelliteNumber": "37869",
            "Classification": "U",
            "LaunchYear": "11",
            "LaunchNumber": "064",
            "PieceOfLaunch": "C",
            "EpochYear": "24",
            "EpochDay": 281.24910439,
            "FirstDerivativeMeanMotion": 5.2e-07,
            "SecondDerivativeMeanMotion": "00000+0",
            "BSTAR": "00000+0",
            "SetNumber": "999",
            "Inclination": 64.9512,
            "RAAN": 93.878,
            "Eccentricity": 0.0023343,
            "ArgumentOfPerigee": 247.7381,
            "MeanAnomaly": 113.1237,
            "MeanMotion": 2.13101861,
            "RevolutionNumber": "10060"
        }
    ]
}